[{"OBJECT_NAME":"STARLINK-4262","OBJECT_ID":"2022-076AF","EPOCH":"2026-03-09T10:07:12.160128","MEAN_MOTION":15.08842836,"ECCENTRICITY":0.0001302,"INCLINATION":53.2155,"RA_OF_ASC_NODE":85.3231,"ARG_OF_PERICENTER":100.4168,"MEAN_ANOMALY":259.6971,"EPHEMERIS_TYPE":0,"CLASSIFICATION_TYPE":"U","NORAD_CAT_ID":53015,"ELEMENT_SET_NO":999,"REV_AT_EPOCH":20294,"BSTAR":6.9976886e-5,"MEAN_MOTION_DOT":8.26e-6,"MEAN_MOTION_DDOT":0},{"OBJECT_NAME":"SL-6 R\/B(2)","OBJECT_ID":"1990-055D","EPOCH":"2026-03-09T21:41:59.551872","MEAN_MOTION":15.03595553,"ECCENTRICITY":0.00247741,"INCLINATION":62.7825,"RA_OF_ASC_NODE":253.121,"ARG_OF_PERICENTER":347.1508,"MEAN_ANOMALY":12.8957,"EPHEMERIS_TYPE":0,"CLASSIFICATION_TYPE":"U","NORAD_CAT_ID":20666,"ELEMENT_SET_NO":999,"REV_AT_EPOCH":93822,"BSTAR":0.00020900577,"MEAN_MOTION_DOT":2.688e-5,"MEAN_MOTION_DDOT":0}]
